{
  "type": "FeatureCollection",
  "features": [
    {
      "type": "Feature",
      "properties": {
        "norad_id": 66596,
        "name": "STARLINK-35811",
        "group": "last-30-days",
        "lat": -42.90668485100526,
        "lon": 68.90153592475285,
        "alt_km": 445.8899084681934,
        "timestamp": "2025-12-17T21:39:44.490806+00:00",
        "meta_object_name": "STARLINK-35811",
        "meta_object_id": "2025-270J",
        "meta_epoch": "2025-12-17T14:17:06.373824",
        "meta_mean_motion": 15.40706373,
        "meta_eccentricity": 0.00021606,
        "meta_inclination": 42.9989,
        "meta_ra_of_asc_node": 164.7375,
        "meta_arg_of_pericenter": 269.6063,
        "meta_mean_anomaly": 90.4546,
        "meta_ephemeris_type": 0,
        "meta_classification_type": "U",
        "meta_norad_cat_id": 66596,
        "meta_element_set_no": 999,
        "meta_rev_at_epoch": 520,
        "meta_bstar": 0.00048950058,
        "meta_mean_motion_dot": 0.00020203,
        "meta_mean_motion_ddot": 0,
        "tle_line1": "1 66596U 25270J   25351.59521266  .00020203  00000+0  48950-3 0  9995",
        "tle_line2": "2 66596  42.9989 164.7375 0002160 269.6063  90.4546 15.40706373  5200"
      },
      "geometry": {
        "type": "Point",
        "coordinates": [
          68.90153592475285,
          -42.90668485100526
        ]
      }
    },
    {
      "type": "Feature",
      "properties": {
        "norad_id": 66597,
        "name": "STARLINK-35820",
        "group": "last-30-days",
        "lat": -27.882714293382108,
        "lon": 128.24876590980762,
        "alt_km": 445.8497353207813,
        "timestamp": "2025-12-17T21:39:44.490815+00:00",
        "meta_object_name": "STARLINK-35820",
        "meta_object_id": "2025-270K",
        "meta_epoch": "2025-12-17T14:00:03.000384",
        "meta_mean_motion": 15.40693519,
        "meta_eccentricity": 0.00015185,
        "meta_inclination": 42.9989,
        "meta_ra_of_asc_node": 164.6858,
        "meta_arg_of_pericenter": 271.9635,
        "meta_mean_anomaly": 72.0591,
        "meta_ephemeris_type": 0,
        "meta_classification_type": "U",
        "meta_norad_cat_id": 66597,
        "meta_element_set_no": 999,
        "meta_rev_at_epoch": 528,
        "meta_bstar": 0.00021741253,
        "meta_mean_motion_dot": 8.787e-05,
        "meta_mean_motion_ddot": 0,
        "tle_line1": "1 66597U 25270K   25351.58336806  .00008787  00000+0  21741-3 0  9991",
        "tle_line2": "2 66597  42.9989 164.6858 0001518 271.9635  72.0591 15.40693519  5284"
      },
      "geometry": {
        "type": "Point",
        "coordinates": [
          128.24876590980762,
          -27.882714293382108
        ]
      }
    },
    {
      "type": "Feature",
      "properties": {
        "norad_id": 66598,
        "name": "STARLINK-35981",
        "group": "last-30-days",
        "lat": 41.70593446925329,
        "lon": -90.52612208727501,
        "alt_km": 407.97105031683714,
        "timestamp": "2025-12-17T21:39:44.490824+00:00",
        "meta_object_name": "STARLINK-35981",
        "meta_object_id": "2025-270L",
        "meta_epoch": "2025-12-15T05:50:49.994016",
        "meta_mean_motion": 15.50578636,
        "meta_eccentricity": 0.00015186,
        "meta_inclination": 42.999,
        "meta_ra_of_asc_node": 178.0473,
        "meta_arg_of_pericenter": 290.6463,
        "meta_mean_anomaly": 69.4235,
        "meta_ephemeris_type": 0,
        "meta_classification_type": "U",
        "meta_norad_cat_id": 66598,
        "meta_element_set_no": 999,
        "meta_rev_at_epoch": 457,
        "meta_bstar": 0.001433442,
        "meta_mean_motion_dot": 0.00084665,
        "meta_mean_motion_ddot": 0,
        "tle_line1": "1 66598U 25270L   25349.24363419  .00084665  00000+0  14334-2 0  9990",
        "tle_line2": "2 66598  42.9990 178.0473 0001518 290.6463  69.4235 15.50578636  4575"
      },
      "geometry": {
        "type": "Point",
        "coordinates": [
          -90.52612208727501,
          41.70593446925329
        ]
      }
    },
    {
      "type": "Feature",
      "properties": {
        "norad_id": 66599,
        "name": "STARLINK-35930",
        "group": "last-30-days",
        "lat": 41.73669059243853,
        "lon": -90.72122448041354,
        "alt_km": 409.0015015351273,
        "timestamp": "2025-12-17T21:39:44.490834+00:00",
        "meta_object_name": "STARLINK-35930",
        "meta_object_id": "2025-270M",
        "meta_epoch": "2025-12-17T13:29:36.098304",
        "meta_mean_motion": 15.5061847,
        "meta_eccentricity": 0.00013595,
        "meta_inclination": 42.9994,
        "meta_ra_of_asc_node": 164.483,
        "meta_arg_of_pericenter": 265.0415,
        "meta_mean_anomaly": 95.029,
        "meta_ephemeris_type": 0,
        "meta_classification_type": "U",
        "meta_norad_cat_id": 66599,
        "meta_element_set_no": 999,
        "meta_rev_at_epoch": 509,
        "meta_bstar": 0.0014372406,
        "meta_mean_motion_dot": 0.00085015,
        "meta_mean_motion_ddot": 0,
        "tle_line1": "1 66599U 25270M   25351.56222336  .00085015  00000+0  14372-2 0  9993",
        "tle_line2": "2 66599  42.9994 164.4830 0001359 265.0415  95.0290 15.50618470  5097"
      },
      "geometry": {
        "type": "Point",
        "coordinates": [
          -90.72122448041354,
          41.73669059243853
        ]
      }
    },
    {
      "type": "Feature",
      "properties": {
        "norad_id": 66600,
        "name": "STARLINK-35980",
        "group": "last-30-days",
        "lat": 42.9600324503865,
        "lon": -109.57313007455355,
        "alt_km": 427.8627731748975,
        "timestamp": "2025-12-17T21:39:44.490844+00:00",
        "meta_object_name": "STARLINK-35980",
        "meta_object_id": "2025-270N",
        "meta_epoch": "2025-12-17T14:00:03.000384",
        "meta_mean_motion": 15.45740264,
        "meta_eccentricity": 0.00015591,
        "meta_inclination": 42.9996,
        "meta_ra_of_asc_node": 164.3809,
        "meta_arg_of_pericenter": 274.176,
        "meta_mean_anomaly": 196.5849,
        "meta_ephemeris_type": 0,
        "meta_classification_type": "U",
        "meta_norad_cat_id": 66600,
        "meta_element_set_no": 999,
        "meta_rev_at_epoch": 508,
        "meta_bstar": -0.04629644,
        "meta_mean_motion_dot": -0.02040306,
        "meta_mean_motion_ddot": 0,
        "tle_line1": "1 66600U 25270N   25351.58336806 -.02040306  00000+0 -46296-1 0  9993",
        "tle_line2": "2 66600  42.9996 164.3809 0001559 274.1760 196.5849 15.45740264  5080"
      },
      "geometry": {
        "type": "Point",
        "coordinates": [
          -109.57313007455355,
          42.9600324503865
        ]
      }
    },
    {
      "type": "Feature",
      "properties": {
        "norad_id": 66601,
        "name": "STARLINK-35978",
        "group": "last-30-days",
        "lat": -4.097221228112315,
        "lon": 158.34621678305388,
        "alt_km": 444.6231905051036,
        "timestamp": "2025-12-17T21:39:44.490853+00:00",
        "meta_object_name": "STARLINK-35978",
        "meta_object_id": "2025-270P",
        "meta_epoch": "2025-12-17T14:00:03.000384",
        "meta_mean_motion": 15.40697855,
        "meta_eccentricity": 0.00016472,
        "meta_inclination": 42.9987,
        "meta_ra_of_asc_node": 164.5952,
        "meta_arg_of_pericenter": 246.6801,
        "meta_mean_anomaly": 134.6505,
        "meta_ephemeris_type": 0,
        "meta_classification_type": "U",
        "meta_norad_cat_id": 66601,
        "meta_element_set_no": 999,
        "meta_rev_at_epoch": 501,
        "meta_bstar": 0.00016009086,
        "meta_mean_motion_dot": 6.389e-05,
        "meta_mean_motion_ddot": 0,
        "tle_line1": "1 66601U 25270P   25351.58336806  .00006389  00000+0  16009-3 0  9994",
        "tle_line2": "2 66601  42.9987 164.5952 0001647 246.6801 134.6505 15.40697855  5017"
      },
      "geometry": {
        "type": "Point",
        "coordinates": [
          158.34621678305388,
          -4.097221228112315
        ]
      }
    },
    {
      "type": "Feature",
      "properties": {
        "norad_id": 66602,
        "name": "STARLINK-36050",
        "group": "last-30-days",
        "lat": -42.25847282123703,
        "lon": 85.74611068964596,
        "alt_km": 446.33426441038864,
        "timestamp": "2025-12-17T21:39:44.490862+00:00",
        "meta_object_name": "STARLINK-36050",
        "meta_object_id": "2025-270Q",
        "meta_epoch": "2025-12-17T14:13:53.017536",
        "meta_mean_motion": 15.40701646,
        "meta_eccentricity": 0.00014495,
        "meta_inclination": 42.9984,
        "meta_ra_of_asc_node": 164.7198,
        "meta_arg_of_pericenter": 269.3174,
        "meta_mean_anomaly": 90.7517,
        "meta_ephemeris_type": 0,
        "meta_classification_type": "U",
        "meta_norad_cat_id": 66602,
        "meta_element_set_no": 999,
        "meta_rev_at_epoch": 499,
        "meta_bstar": 0.0009253751,
        "meta_mean_motion_dot": 0.00038549,
        "meta_mean_motion_ddot": 0,
        "tle_line1": "1 66602U 25270Q   25351.59297474  .00038549  00000+0  92538-3 0  9997",
        "tle_line2": "2 66602  42.9984 164.7198 0001449 269.3174  90.7517 15.40701646  4999"
      },
      "geometry": {
        "type": "Point",
        "coordinates": [
          85.74611068964596,
          -42.25847282123703
        ]
      }
    }
  ]
}